[
    {
        "Altitude(m)": 553468.2755281043,
        "Argument of Periapsis(deg)": 0.026491964442854003,
        "Eccentricity": 0.0,
        "Inclination(deg)": 53.0,
        "Latitude(deg)": 11.87499436384668,
        "Longitude(deg)": -129.11707065049794,
        "Mean Anomaly(deg)": 14.911871470310333,
        "RAAN(deg)": 324.96057347411204,
        "Satellite Name": "Starlink Shell 1 1450",
        "Satellite Number": 1450,
        "Semi-Major Axis(m)": 6931778.249405717,
        "Time(s)": 760
    },
    {
        "Altitude(m)": 553469.6761076627,
        "Argument of Periapsis(deg)": 0.02684054292236524,
        "Eccentricity": 0.0,
        "Inclination(deg)": 53.0,
        "Latitude(deg)": 12.372306399650894,
        "Longitude(deg)": -128.76431492783965,
        "Mean Anomaly(deg)": 15.538702673867078,
        "RAAN(deg)": 324.9600547040346,
        "Satellite Name": "Starlink Shell 1 1450",
        "Satellite Number": 1450,
        "Semi-Major Axis(m)": 6931778.249405717,
        "Time(s)": 770
    },
    {
        "Altitude(m)": 553473.6668368722,
        "Argument of Periapsis(deg)": 0.027189121401876473,
        "Eccentricity": 0.0,
        "Inclination(deg)": 53.0,
        "Latitude(deg)": 12.86903222092151,
        "Longitude(deg)": -128.4100641628724,
        "Mean Anomaly(deg)": 16.165533877423723,
        "RAAN(deg)": 324.9595359339571,
        "Satellite Name": "Starlink Shell 1 1450",
        "Satellite Number": 1450,
        "Semi-Major Axis(m)": 6931778.249405717,
        "Time(s)": 780
    },
    {
        "Altitude(m)": 553480.2229986975,
        "Argument of Periapsis(deg)": 0.02753769988138771,
        "Eccentricity": 0.0,
        "Inclination(deg)": 53.0,
        "Latitude(deg)": 13.365144947368256,
        "Longitude(deg)": -128.05425207587203,
        "Mean Anomaly(deg)": 16.79236508098042,
        "RAAN(deg)": 324.9590171638796,
        "Satellite Name": "Starlink Shell 1 1450",
        "Satellite Number": 1450,
        "Semi-Major Axis(m)": 6931778.249405717,
        "Time(s)": 790
    },
    {
        "Altitude(m)": 553489.3187073594,
        "Argument of Periapsis(deg)": 0.02788627836089895,
        "Eccentricity": 0.0,
        "Inclination(deg)": 53.0,
        "Latitude(deg)": 13.860617362269062,
        "Longitude(deg)": -127.69681221982606,
        "Mean Anomaly(deg)": 17.419196284537268,
        "RAAN(deg)": 324.95849839380213,
        "Satellite Name": "Starlink Shell 1 1450",
        "Satellite Number": 1450,
        "Semi-Major Axis(m)": 6931778.249405717,
        "Time(s)": 800
    },
    {
        "Altitude(m)": 553500.9269239091,
        "Argument of Periapsis(deg)": 0.02823485684041019,
        "Eccentricity": 0.0,
        "Inclination(deg)": 53.0,
        "Latitude(deg)": 14.355421896767645,
        "Longitude(deg)": -127.3376774491909,
        "Mean Anomaly(deg)": 18.046027488093912,
        "RAAN(deg)": 324.9579796237247,
        "Satellite Name": "Starlink Shell 1 1450",
        "Satellite Number": 1450,
        "Semi-Major Axis(m)": 6931778.249405717,
        "Time(s)": 810
    },
    {
        "Altitude(m)": 553515.0194723548,
        "Argument of Periapsis(deg)": 0.028583435319921423,
        "Eccentricity": 0.0,
        "Inclination(deg)": 53.0,
        "Latitude(deg)": 14.849530613854112,
        "Longitude(deg)": -126.97677938862098,
        "Mean Anomaly(deg)": 18.672858691650557,
        "RAAN(deg)": 324.9574608536472,
        "Satellite Name": "Starlink Shell 1 1450",
        "Satellite Number": 1450,
        "Semi-Major Axis(m)": 6931778.249405717,
        "Time(s)": 820
    },
    {
        "Altitude(m)": 553531.5670563529,
        "Argument of Periapsis(deg)": 0.028932013799432665,
        "Eccentricity": 0.0,
        "Inclination(deg)": 53.0,
        "Latitude(deg)": 15.342915192014464,
        "Longitude(deg)": -126.6140494145588,
        "Mean Anomaly(deg)": 19.299689895207354,
        "RAAN(deg)": 324.9569420835697,
        "Satellite Name": "Starlink Shell 1 1450",
        "Satellite Number": 1450,
        "Semi-Major Axis(m)": 6931778.249405717,
        "Time(s)": 830
    },
    {
        "Altitude(m)": 553550.5392764296,
        "Argument of Periapsis(deg)": 0.029280592278943897,
        "Eccentricity": 0.0,
        "Inclination(deg)": 53.0,
        "Latitude(deg)": 15.835546908535457,
        "Longitude(deg)": -126.24941812395927,
        "Mean Anomaly(deg)": 19.926521098764102,
        "RAAN(deg)": 324.9564233134923,
        "Satellite Name": "Starlink Shell 1 1450",
        "Satellite Number": 1450,
        "Semi-Major Axis(m)": 6931778.249405717,
        "Time(s)": 840
    },
    {
        "Altitude(m)": 553571.9046477443,
        "Argument of Periapsis(deg)": 0.029629170758455132,
        "Eccentricity": 0.0,
        "Inclination(deg)": 53.0,
        "Latitude(deg)": 16.327396622453314,
        "Longitude(deg)": -125.88281480304371,
        "Mean Anomaly(deg)": 20.553352302320747,
        "RAAN(deg)": 324.9559045434148,
        "Satellite Name": "Starlink Shell 1 1450",
        "Satellite Number": 1450,
        "Semi-Major Axis(m)": 6931778.249405717,
        "Time(s)": 850
    },
    {
        "Altitude(m)": 553595.6306183597,
        "Argument of Periapsis(deg)": 0.02997774923796637,
        "Eccentricity": 0.0,
        "Inclination(deg)": 53.0,
        "Latitude(deg)": 16.818434757135563,
        "Longitude(deg)": -125.5141685770763,
        "Mean Anomaly(deg)": 21.18018350587744,
        "RAAN(deg)": 324.9553857733373,
        "Satellite Name": "Starlink Shell 1 1450",
        "Satellite Number": 1450,
        "Semi-Major Axis(m)": 6931778.249405717,
        "Time(s)": 860
    },
    {
        "Altitude(m)": 553621.6835880374,
        "Argument of Periapsis(deg)": 0.030326327717477602,
        "Eccentricity": 0.0,
        "Inclination(deg)": 53.0,
        "Latitude(deg)": 17.308631282478714,
        "Longitude(deg)": -125.14340703876884,
        "Mean Anomaly(deg)": 21.807014709434238,
        "RAAN(deg)": 324.95486700325984,
        "Satellite Name": "Starlink Shell 1 1450",
        "Satellite Number": 1450,
        "Semi-Major Axis(m)": 6931778.249405717,
        "Time(s)": 870
    },
    {
        "Altitude(m)": 553650.0289275459,
        "Argument of Periapsis(deg)": 0.030674906196988847,
        "Eccentricity": 0.0,
        "Inclination(deg)": 53.0,
        "Latitude(deg)": 17.797955696715032,
        "Longitude(deg)": -124.77045739825326,
        "Mean Anomaly(deg)": 22.433845912990936,
        "RAAN(deg)": 324.9543482331824,
        "Satellite Name": "Starlink Shell 1 1450",
        "Satellite Number": 1450,
        "Semi-Major Axis(m)": 6931778.249405717,
        "Time(s)": 880
    },
    {
        "Altitude(m)": 553680.6309984175,
        "Argument of Periapsis(deg)": 0.031023484676500086,
        "Eccentricity": 0.0,
        "Inclination(deg)": 53.0,
        "Latitude(deg)": 18.286377007812977,
        "Longitude(deg)": -124.39524595223041,
        "Mean Anomaly(deg)": 23.060677116547634,
        "RAAN(deg)": 324.9538294631049,
        "Satellite Name": "Starlink Shell 1 1450",
        "Satellite Number": 1450,
        "Semi-Major Axis(m)": 6931778.249405717,
        "Time(s)": 890
    },
    {
        "Altitude(m)": 553713.4531732512,
        "Argument of Periapsis(deg)": 0.03137206315601132,
        "Eccentricity": 0.0,
        "Inclination(deg)": 53.0,
        "Latitude(deg)": 18.77386371445892,
        "Longitude(deg)": -124.01769755330726,
        "Mean Anomaly(deg)": 23.687508320104428,
        "RAAN(deg)": 324.95331069302745,
        "Satellite Name": "Starlink Shell 1 1450",
        "Satellite Number": 1450,
        "Semi-Major Axis(m)": 6931778.249405717,
        "Time(s)": 900
    },
    {
        "Altitude(m)": 553748.4578564027,
        "Argument of Periapsis(deg)": 0.03172064163552255,
        "Eccentricity": 0.0,
        "Inclination(deg)": 53.0,
        "Latitude(deg)": 19.260383786611516,
        "Longitude(deg)": -123.63773659243562,
        "Mean Anomaly(deg)": 24.314339523661125,
        "RAAN(deg)": 324.9527919229499,
        "Satellite Name": "Starlink Shell 1 1450",
        "Satellite Number": 1450,
        "Semi-Major Axis(m)": 6931778.249405717,
        "Time(s)": 910
    },
    {
        "Altitude(m)": 553785.6065052254,
        "Argument of Periapsis(deg)": 0.0320692201150338,
        "Eccentricity": 0.0,
        "Inclination(deg)": 53.0,
        "Latitude(deg)": 19.745904645614416,
        "Longitude(deg)": -123.25528646875266,
        "Mean Anomaly(deg)": 24.941170727217767,
        "RAAN(deg)": 324.95227315287246,
        "Satellite Name": "Starlink Shell 1 1450",
        "Satellite Number": 1450,
        "Semi-Major Axis(m)": 6931778.249405717,
        "Time(s)": 920
    },
    {
        "Altitude(m)": 553824.8596516517,
        "Argument of Periapsis(deg)": 0.032417798594545036,
        "Eccentricity": 0.0,
        "Inclination(deg)": 53.0,
        "Latitude(deg)": 20.230393143856205,
        "Longitude(deg)": -122.87026905975252,
        "Mean Anomaly(deg)": 25.568001930774514,
        "RAAN(deg)": 324.95175438279506,
        "Satellite Name": "Starlink Shell 1 1450",
        "Satellite Number": 1450,
        "Semi-Major Axis(m)": 6931778.249405717,
        "Time(s)": 930
    },
    {
        "Altitude(m)": 553866.1769243163,
        "Argument of Periapsis(deg)": 0.03276637707405627,
        "Eccentricity": 0.0,
        "Inclination(deg)": 53.0,
        "Latitude(deg)": 20.713815543969673,
        "Longitude(deg)": -122.48260570471412,
        "Mean Anomaly(deg)": 26.19483313433121,
        "RAAN(deg)": 324.95123561271754,
        "Satellite Name": "Starlink Shell 1 1450",
        "Satellite Number": 1450,
        "Semi-Major Axis(m)": 6931778.249405717,
        "Time(s)": 940
    }
]